[
    {
        "Altitude(m)": 556178.5161371091,
        "Argument of Periapsis(deg)": 0.026491964442854003,
        "Eccentricity": 0.0,
        "Inclination(deg)": 53.0,
        "Latitude(deg)": 36.30018335279344,
        "Longitude(deg)": -54.78168409473046,
        "Mean Anomaly(deg)": 47.639171470310345,
        "RAAN(deg)": 14.960573474112067,
        "Satellite Name": "Starlink Shell 1 66",
        "Satellite Number": 66,
        "Semi-Major Axis(m)": 6931778.249405717,
        "Time(s)": 760
    },
    {
        "Altitude(m)": 556261.4994212533,
        "Argument of Periapsis(deg)": 0.02684054292236524,
        "Eccentricity": 0.0,
        "Inclination(deg)": 53.0,
        "Latitude(deg)": 36.71811371603554,
        "Longitude(deg)": -54.241267756291194,
        "Mean Anomaly(deg)": 48.26600267386708,
        "RAAN(deg)": 14.960054704034594,
        "Satellite Name": "Starlink Shell 1 66",
        "Satellite Number": 66,
        "Semi-Major Axis(m)": 6931778.249405717,
        "Time(s)": 770
    },
    {
        "Altitude(m)": 556344.6950756003,
        "Argument of Periapsis(deg)": 0.027189121401876473,
        "Eccentricity": 0.0,
        "Inclination(deg)": 53.0,
        "Latitude(deg)": 37.1331411656864,
        "Longitude(deg)": -53.694543623856404,
        "Mean Anomaly(deg)": 48.892833877423776,
        "RAAN(deg)": 14.95953593395712,
        "Satellite Name": "Starlink Shell 1 66",
        "Satellite Number": 66,
        "Semi-Major Axis(m)": 6931778.249405717,
        "Time(s)": 780
    },
    {
        "Altitude(m)": 556428.0476043777,
        "Argument of Periapsis(deg)": 0.02753769988138771,
        "Eccentricity": 0.0,
        "Inclination(deg)": 53.0,
        "Latitude(deg)": 37.54519088321732,
        "Longitude(deg)": -53.141391180627934,
        "Mean Anomaly(deg)": 49.519665080980474,
        "RAAN(deg)": 14.95901716387965,
        "Satellite Name": "Starlink Shell 1 66",
        "Satellite Number": 66,
        "Semi-Major Axis(m)": 6931778.249405717,
        "Time(s)": 790
    },
    {
        "Altitude(m)": 556511.5016418785,
        "Argument of Periapsis(deg)": 0.02788627836089895,
        "Eccentricity": 0.0,
        "Inclination(deg)": 53.0,
        "Latitude(deg)": 37.954186361246045,
        "Longitude(deg)": -52.58169020858849,
        "Mean Anomaly(deg)": 50.146496284537214,
        "RAAN(deg)": 14.958498393802175,
        "Satellite Name": "Starlink Shell 1 66",
        "Satellite Number": 66,
        "Semi-Major Axis(m)": 6931778.249405717,
        "Time(s)": 800
    },
    {
        "Altitude(m)": 556595.0019808387,
        "Argument of Periapsis(deg)": 0.02823485684041019,
        "Eccentricity": 0.0,
        "Inclination(deg)": 53.0,
        "Latitude(deg)": 38.3600493768356,
        "Longitude(deg)": -52.01532042959793,
        "Mean Anomaly(deg)": 50.77332748809393,
        "RAAN(deg)": 14.957979623724702,
        "Satellite Name": "Starlink Shell 1 66",
        "Satellite Number": 66,
        "Semi-Major Axis(m)": 6931778.249405717,
        "Time(s)": 810
    },
    {
        "Altitude(m)": 556678.4936006637,
        "Argument of Periapsis(deg)": 0.028583435319921423,
        "Eccentricity": 0.0,
        "Inclination(deg)": 53.0,
        "Latitude(deg)": 38.76269996627667,
        "Longitude(deg)": -51.44216115901662,
        "Mean Anomaly(deg)": 51.40015869165064,
        "RAAN(deg)": 14.957460853647229,
        "Satellite Name": "Starlink Shell 1 66",
        "Satellite Number": 66,
        "Semi-Major Axis(m)": 6931778.249405717,
        "Time(s)": 820
    },
    {
        "Altitude(m)": 556761.9216955411,
        "Argument of Periapsis(deg)": 0.028932013799432665,
        "Eccentricity": 0.0,
        "Inclination(deg)": 53.0,
        "Latitude(deg)": 39.16205640155999,
        "Longitude(deg)": -50.86209248534104,
        "Mean Anomaly(deg)": 52.02698989520737,
        "RAAN(deg)": 14.956942083569759,
        "Satellite Name": "Starlink Shell 1 66",
        "Satellite Number": 66,
        "Semi-Major Axis(m)": 6931778.249405717,
        "Time(s)": 830
    },
    {
        "Altitude(m)": 556845.2317023866,
        "Argument of Periapsis(deg)": 0.029280592278943897,
        "Eccentricity": 0.0,
        "Inclination(deg)": 53.0,
        "Latitude(deg)": 39.55803516876514,
        "Longitude(deg)": -50.27499495072535,
        "Mean Anomaly(deg)": 52.653821098764055,
        "RAAN(deg)": 14.956423313492282,
        "Satellite Name": "Starlink Shell 1 66",
        "Satellite Number": 66,
        "Semi-Major Axis(m)": 6931778.249405717,
        "Time(s)": 840
    },
    {
        "Altitude(m)": 556928.3693286345,
        "Argument of Periapsis(deg)": 0.029629170758455132,
        "Eccentricity": 0.0,
        "Inclination(deg)": 53.0,
        "Latitude(deg)": 39.95055094860255,
        "Longitude(deg)": -49.68074924587029,
        "Mean Anomaly(deg)": 53.28065230232079,
        "RAAN(deg)": 14.955904543414809,
        "Satellite Name": "Starlink Shell 1 66",
        "Satellite Number": 66,
        "Semi-Major Axis(m)": 6931778.249405717,
        "Time(s)": 850
    },
    {
        "Altitude(m)": 557011.2805798495,
        "Argument of Periapsis(deg)": 0.02997774923796637,
        "Eccentricity": 0.0,
        "Inclination(deg)": 53.0,
        "Latitude(deg)": 40.33951659936081,
        "Longitude(deg)": -49.07923760084836,
        "Mean Anomaly(deg)": 53.9074835058775,
        "RAAN(deg)": 14.955385773337339,
        "Satellite Name": "Starlink Shell 1 66",
        "Satellite Number": 66,
        "Semi-Major Axis(m)": 6931778.249405717,
        "Time(s)": 860
    },
    {
        "Altitude(m)": 557093.9117871522,
        "Argument of Periapsis(deg)": 0.030326327717477602,
        "Eccentricity": 0.0,
        "Inclination(deg)": 53.0,
        "Latitude(deg)": 40.72484314253338,
        "Longitude(deg)": -48.470342670028344,
        "Mean Anomaly(deg)": 54.53431470943422,
        "RAAN(deg)": 14.954867003259865,
        "Satellite Name": "Starlink Shell 1 66",
        "Satellite Number": 66,
        "Semi-Major Axis(m)": 6931778.249405717,
        "Time(s)": 870
    },
    {
        "Altitude(m)": 557176.2096344387,
        "Argument of Periapsis(deg)": 0.030674906196988847,
        "Eccentricity": 0.0,
        "Inclination(deg)": 53.0,
        "Latitude(deg)": 41.10643975140558,
        "Longitude(deg)": -47.85394895456596,
        "Mean Anomaly(deg)": 55.16114591299092,
        "RAAN(deg)": 14.954348233182392,
        "Satellite Name": "Starlink Shell 1 66",
        "Satellite Number": 66,
        "Semi-Major Axis(m)": 6931778.249405717,
        "Time(s)": 880
    },
    {
        "Altitude(m)": 557258.121185385,
        "Argument of Periapsis(deg)": 0.031023484676500086,
        "Eccentricity": 0.0,
        "Inclination(deg)": 53.0,
        "Latitude(deg)": 41.48421374290783,
        "Longitude(deg)": -47.22994256057039,
        "Mean Anomaly(deg)": 55.78797711654766,
        "RAAN(deg)": 14.953829463104922,
        "Satellite Name": "Starlink Shell 1 66",
        "Satellite Number": 66,
        "Semi-Major Axis(m)": 6931778.249405717,
        "Time(s)": 890
    },
    {
        "Altitude(m)": 557339.5939102317,
        "Argument of Periapsis(deg)": 0.03137206315601132,
        "Eccentricity": 0.0,
        "Inclination(deg)": 53.0,
        "Latitude(deg)": 41.858070573051506,
        "Longitude(deg)": -46.59821097440739,
        "Mean Anomaly(deg)": 56.41480832010436,
        "RAAN(deg)": 14.953310693027447,
        "Satellite Name": "Starlink Shell 1 66",
        "Satellite Number": 66,
        "Semi-Major Axis(m)": 6931778.249405717,
        "Time(s)": 900
    },
    {
        "Altitude(m)": 557420.5757123032,
        "Argument of Periapsis(deg)": 0.03172064163552255,
        "Eccentricity": 0.0,
        "Inclination(deg)": 53.0,
        "Latitude(deg)": 42.22791383627985,
        "Longitude(deg)": -45.958644368454664,
        "Mean Anomaly(deg)": 57.041639523661054,
        "RAAN(deg)": 14.952791922949974,
        "Satellite Name": "Starlink Shell 1 66",
        "Satellite Number": 66,
        "Semi-Major Axis(m)": 6931778.249405717,
        "Time(s)": 910
    },
    {
        "Altitude(m)": 557501.0149543231,
        "Argument of Periapsis(deg)": 0.0320692201150338,
        "Eccentricity": 0.0,
        "Inclination(deg)": 53.0,
        "Latitude(deg)": 42.5936452690858,
        "Longitude(deg)": -45.311135411952286,
        "Mean Anomaly(deg)": 57.668470727217795,
        "RAAN(deg)": 14.9522731528725,
        "Satellite Name": "Starlink Shell 1 66",
        "Satellite Number": 66,
        "Semi-Major Axis(m)": 6931778.249405717,
        "Time(s)": 920
    },
    {
        "Altitude(m)": 557580.8604844112,
        "Argument of Periapsis(deg)": 0.032417798594545036,
        "Eccentricity": 0.0,
        "Inclination(deg)": 53.0,
        "Latitude(deg)": 42.95516475825973,
        "Longitude(deg)": -44.65557910013816,
        "Mean Anomaly(deg)": 58.2953019307745,
        "RAAN(deg)": 14.95175438279503,
        "Satellite Name": "Starlink Shell 1 66",
        "Satellite Number": 66,
        "Semi-Major Axis(m)": 6931778.249405717,
        "Time(s)": 930
    },
    {
        "Altitude(m)": 557660.0616618376,
        "Argument of Periapsis(deg)": 0.03276637707405627,
        "Eccentricity": 0.0,
        "Inclination(deg)": 53.0,
        "Latitude(deg)": 43.31237035414288,
        "Longitude(deg)": -43.99187411477445,
        "Mean Anomaly(deg)": 58.92213313433122,
        "RAAN(deg)": 14.951235612717557,
        "Satellite Name": "Starlink Shell 1 66",
        "Satellite Number": 66,
        "Semi-Major Axis(m)": 6931778.249405717,
        "Time(s)": 940
    }
]